H1 CPF  1  DLR 2022 02 14 10  5452 technosat            
H2  1704205 6203    42829 2022 02 14 00 00 00 2022 02 21 00 00 00    60 1 1  0 0 0
H9
10 0 59627  14400.000000  0       -851502.762      -3302454.936       6068276.718
10 0 59627  14460.000000  0      -1077066.001      -3630782.089       5841854.719
10 0 59627  14520.000000  0      -1300884.856      -3941831.575       5590617.783
10 0 59627  14580.000000  0      -1521858.944      -4234312.889       5315634.663
10 0 59627  14640.000000  0      -1738889.077      -4507023.639       5018074.943
10 0 59627  14700.000000  0      -1950882.750      -4758854.688       4699204.141
10 0 59627  14760.000000  0      -2156759.676      -4988794.891       4360378.390
10 0 59627  14820.000000  0      -2355457.313      -5195935.363       4003038.620
10 0 59627  14880.000000  0      -2545936.322      -5379473.208       3628704.342
10 0 59627  14940.000000  0      -2727185.944      -5538714.715       3238967.097
10 0 59627  15000.000000  0      -2898229.287      -5673078.053       2835483.626
10 0 59627  15060.000000  0      -3058128.488      -5782095.462       2419968.727
10 0 59627  15120.000000  0      -3205989.726      -5865414.893       1994187.830
10 0 59627  15180.000000  0      -3340968.052      -5922801.116       1559949.350
10 0 59627  15240.000000  0      -3462272.014      -5954136.241       1119096.812
10 0 59627  15300.000000  0      -3569168.021      -5959419.667        673500.840
10 0 59627  15360.000000  0      -3660984.450      -5938767.491        225051.035
10 0 59627  15420.000000  0      -3737115.477      -5892411.365       -224352.252
10 0 59627  15480.000000  0      -3797024.565      -5820696.764       -672806.196
10 0 59627  15540.000000  0      -3840247.632      -5724080.723      -1118413.747
10 0 59627  15600.000000  0      -3866395.847      -5603129.008      -1559291.842
10 0 59627  15660.000000  0      -3875158.066      -5458512.805      -1993579.485
10 0 59627  15720.000000  0      -3866302.882      -5291004.909      -2419445.710
10 0 59627  15780.000000  0      -3839680.274      -5101475.455      -2835097.353
10 0 59627  15840.000000  0      -3795222.834      -4890887.218      -3238786.586
10 0 59627  15900.000000  0      -3732946.607      -4660290.550      -3628818.193
10 0 59627  15960.000000  0      -3652951.519      -4410817.956      -4003556.549
10 0 59627  16020.000000  0      -3555421.434      -4143678.373      -4361432.289
10 0 59627  16080.000000  0      -3440623.806      -3860151.175      -4700948.671
10 0 59627  16140.000000  0      -3308908.941      -3561579.893      -5020687.576
10 0 59627  16200.000000  0      -3160708.887      -3249365.736      -5319315.116
10 0 59627  16260.000000  0      -2996535.957      -2924960.940      -5595586.856
10 0 59627  16320.000000  0      -2816980.891      -2589861.982      -5848352.641
10 0 59627  16380.000000  0      -2622710.685      -2245602.713      -6076561.054
10 0 59627  16440.000000  0      -2414466.031      -1893747.340      -6279263.469
10 0 59627  16500.000000  0      -2193058.429      -1535883.381      -6455617.620
10 0 59627  16560.000000  0      -1959367.005      -1173614.613      -6604890.731
10 0 59627  16620.000000  0      -1714335.038       -808554.025      -6726462.224
10 0 59627  16680.000000  0      -1458966.229       -442316.828      -6819825.961
10 0 59627  16740.000000  0      -1194320.726        -76513.553      -6884592.116
10 0 59627  16800.000000  0       -921510.869        287256.763      -6920488.682
10 0 59627  16860.000000  0       -641696.639        647413.334      -6927362.568
10 0 59627  16920.000000  0       -356080.897       1002400.312      -6905180.203
10 0 59627  16980.000000  0        -65904.438       1350693.252      -6854027.677
10 0 59627  17040.000000  0        227559.117       1690805.395      -6774110.617
10 0 59627  17100.000000  0        523008.738       2021293.939      -6665753.672
10 0 59627  17160.000000  0        819121.661       2340766.068      -6529399.407
10 0 59627  17220.000000  0       1114559.140       2647884.724      -6365606.743
10 0 59627  17280.000000  0       1407972.296       2941374.205      -6175049.018
10 0 59627  17340.000000  0       1698008.133       3220025.499      -5958511.564
10 0 59627  17400.000000  0       1983315.683       3482701.282      -5716888.861
10 0 59627  17460.000000  0       2262552.194       3728340.655      -5451181.289
10 0 59627  17520.000000  0       2534389.394       3955963.599      -5162491.418
10 0 59627  17580.000000  0       2797519.783       4164675.127      -4852019.871
10 0 59627  17640.000000  0       3050662.958       4353669.067      -4521060.714
10 0 59627  17700.000000  0       3292571.887       4522231.475      -4170996.405
10 0 59627  17760.000000  0       3522039.109       4669743.603      -3803292.342
10 0 59627  17820.000000  0       3737902.900       4795684.504      -3419491.030
10 0 59627  17880.000000  0       3939053.326       4899633.169      -3021205.749
10 0 59627  17940.000000  0       4124438.044       4981270.131      -2610113.868
10 0 59627  18000.000000  0       4293067.882       5040378.635      -2187949.896
10 0 59627  18060.000000  0       4444022.233       5076845.383      -1756498.211
10 0 59627  18120.000000  0       4576454.210       5090660.793      -1317585.457
10 0 59627  18180.000000  0       4689595.496       5081918.684       -873072.625
10 0 59627  18240.000000  0       4782760.764       5050815.387       -424846.953
10 0 59627  18300.000000  0       4855351.702       4997648.385         25186.310
10 0 59627  18360.000000  0       4906860.631       4922814.453        475112.250
10 0 59627  18420.000000  0       4936873.687       4826807.356        923014.672
10 0 59627  18480.000000  0       4945073.630       4710215.084       1366984.547
10 0 59627  18540.000000  0       4931242.215       4573716.594       1805128.471
10 0 59627  18600.000000  0       4895262.049       4418078.068       2235577.165
10 0 59627  18660.000000  0       4837117.849       4244148.685       2656493.846
10 0 59627  18720.000000  0       4756897.166       4052856.013       3066082.373
10 0 59627  18780.000000  0       4654790.632       3845201.060       3462595.176
10 0 59627  18840.000000  0       4531091.654       3622252.937       3844340.989
10 0 59627  18900.000000  0       4386195.569       3385143.238       4209692.203
10 0 59627  18960.000000  0       4220598.423       3135060.196       4557091.889
10 0 59627  19020.000000  0       4034895.299       2873242.643       4885060.649
10 0 59627  19080.000000  0       3829777.867       2600973.611       5192203.137
10 0 59627  19140.000000  0       3606031.471       2319573.847       5477213.834
10 0 59627  19200.000000  0       3364531.989       2030395.328       5738882.521
10 0 59627  19260.000000  0       3106242.190       1734814.580       5976099.376
10 0 59627  19320.000000  0       2832207.696       1434225.945       6187859.544
10 0 59627  19380.000000  0       2543552.529       1130034.859       6373267.214
10 0 59627  19440.000000  0       2241474.321        823651.213       6531539.198
10 0 59627  19500.000000  0       1927239.198        516482.801       6662008.094
10 0 59627  19560.000000  0       1602176.316        209928.838       6764124.993
10 0 59627  19620.000000  0       1267672.105        -94626.448       6837461.699
10 0 59627  19680.000000  0        925164.216       -395820.177       6881712.431
10 0 59627  19740.000000  0        576135.225       -692316.996       6896694.894
10 0 59627  19800.000000  0        222106.146       -982814.989       6882350.928
10 0 59627  19860.000000  0       -135370.300      -1266051.430       6838746.664
10 0 59627  19920.000000  0       -494716.542      -1540808.314       6766072.132
10 0 59627  19980.000000  0       -854337.202      -1805917.631       6664640.367
10 0 59627  20040.000000  0      -1212626.191      -2060266.329       6534885.967
10 0 59627  20100.000000  0      -1567973.827      -2302800.956       6377363.233
10 0 59627  20160.000000  0      -1918774.041      -2532532.018       6192743.922
10 0 59627  20220.000000  0      -2263431.657      -2748538.065       5981814.549
10 0 59627  20280.000000  0      -2600369.741      -2949969.513       5745473.212
10 0 59627  20340.000000  0      -2928037.005      -3136052.091       5484725.865
10 0 59627  20400.000000  0      -3244915.137      -3306089.871       5200682.041
10 0 59627  20460.000000  0      -3549525.927      -3459467.895       4894550.110
10 0 59627  20520.000000  0      -3840438.253      -3595654.416       4567632.167
10 0 59627  20580.000000  0      -4116274.919      -3714202.738       4221318.518
10 0 59627  20640.000000  0      -4375719.275      -3814752.650       3857081.754
10 0 59627  20700.000000  0      -4617521.585      -3897031.412       3476470.488
10 0 59627  20760.000000  0      -4840505.164      -3960854.356       3081102.785
10 0 59627  20820.000000  0      -5043572.243      -4006125.084       2672659.216
10 0 59627  20880.000000  0      -5225709.484      -4032835.211       2252875.561
10 0 59627  20940.000000  0      -5385993.074      -4041063.635       1823535.252
10 0 59627  21000.000000  0      -5523593.400      -4030975.368       1386461.623
10 0 59627  21060.000000  0      -5637779.323      -4002819.963        943509.996
10 0 59627  21120.000000  0      -5727921.979      -3956929.511        496559.597
10 0 59627  21180.000000  0      -5793498.087      -3893716.254         47505.381
10 0 59627  21240.000000  0      -5834092.766      -3813669.813       -401750.208
10 0 59627  21300.000000  0      -5849401.846      -3717354.048       -849305.536
10 0 59627  21360.000000  0      -5839233.582      -3605403.521      -1293268.071
10 0 59627  21420.000000  0      -5803509.791      -3478519.622      -1731762.556
10 0 59627  21480.000000  0      -5742266.436      -3337466.413      -2162938.998
10 0 59627  21540.000000  0      -5655653.744      -3183066.247      -2584980.503
99
